{
    "links": {
        "self": "http://www.neowsapp.com/rest/v1/neo/3843349?api_key=iIulBulltgU6a56xZRHN4H3l9WmuAYTsLGpBGhQ2"
    },
    "id": "3843349",
    "neo_reference_id": "3843349",
    "name": "(2019 OU)",
    "designation": "2019 OU",
    "nasa_jpl_url": "http://ssd.jpl.nasa.gov/sbdb.cgi?sstr=3843349",
    "absolute_magnitude_h": 23.1,
    "estimated_diameter": {
        "kilometers": {
            "estimated_diameter_min": 0.063760979,
            "estimated_diameter_max": 0.1425738833
        },
        "meters": {
            "estimated_diameter_min": 63.7609789875,
            "estimated_diameter_max": 142.5738833281
        },
        "miles": {
            "estimated_diameter_min": 0.0396192233,
            "estimated_diameter_max": 0.0885912765
        },
        "feet": {
            "estimated_diameter_min": 209.1895703015,
            "estimated_diameter_max": 467.7620993781
        }
    },
    "is_potentially_hazardous_asteroid": false,
    "close_approach_data": [
        {
            "close_approach_date": "2019-07-22",
            "close_approach_date_full": "2019-Jul-22 13:42",
            "epoch_date_close_approach": 1563802920000,
            "relative_velocity": {
                "kilometers_per_second": "11.5504369131",
                "kilometers_per_hour": "41581.572887011",
                "miles_per_hour": "25837.1723308208"
            },
            "miss_distance": {
                "astronomical": "0.0354955529",
                "lunar": "13.8077700781",
                "kilometers": "5310059.108312323",
                "miles": "3299517.7292351374"
            },
            "orbiting_body": "Earth"
        }
    ],
    "orbital_data": {
        "orbit_id": "4",
        "orbit_determination_date": "2019-08-21 05:18:38",
        "first_observation_date": "2019-07-24",
        "last_observation_date": "2019-08-19",
        "data_arc_in_days": 26,
        "observations_used": 75,
        "orbit_uncertainty": "7",
        "minimum_orbit_intersection": ".0234834",
        "jupiter_tisserand_invariant": "3.924",
        "epoch_osculation": "2459000.5",
        "eccentricity": ".4474855884870829",
        "semi_major_axis": "1.782847396993712",
        "inclination": "16.18135639282345",
        "ascending_node_longitude": "304.3029231126103",
        "orbital_period": "869.5001951228792",
        "perihelion_distance": ".9850488803673167",
        "perihelion_argument": "324.9665785584234",
        "aphelion_distance": "2.580645913620107",
        "perihelion_time": "2458660.491621907836",
        "mean_anomaly": "140.7739949913191",
        "mean_motion": ".4140309594170065",
        "equinox": "J2000",
        "orbit_class": {
            "orbit_class_type": "APO",
            "orbit_class_description": "Near-Earth asteroid orbits which cross the Earth’s orbit similar to that of 1862 Apollo",
            "orbit_class_range": "a (semi-major axis) > 1.0 AU; q (perihelion) < 1.017 AU"
        }
    },
    "is_sentry_object": false
}